NORAD_CAT_ID,OBJECT_NAME,OBJECT_TYPE,EPOCH,MEAN_MOTION,ECCENTRICITY,INCLINATION,RA_OF_ASC_NODE,ARG_OF_PERICENTER,MEAN_ANOMALY,BSTAR,MEAN_MOTION_DOT,MEAN_MOTION_DDOT,TLE_LINE0,TLE_LINE1,TLE_LINE2,SEMIMAJOR_AXIS,PERIOD,APOGEE,PERIGEE,DECAYED
53969.0,STARLINK-4468,PAYLOAD,2024-01-27 12:56:08,15.08854037,0.0001475,53.218,90.4336,98.4461,261.6699,-4.1777e-05,-9.53e-06,0.0,0 STARLINK-4468,1 53969U 22125F   24027.53899018 -.00000953  00000-0 -41777-4 0  9991,2 53969  53.2180  90.4336 0001475  98.4461 261.6699 15.08854037 72758,6917.837,95.437,540.723,538.682,0.0
53969.0,STARLINK-4468,PAYLOAD,2024-01-28 11:11:33,15.08834735,0.0001637,53.2174,86.2735,92.9906,267.1273,4.3491e-05,4.04e-06,0.0,0 STARLINK-4468,1 53969U 22125F   24028.46636093  .00000404  00000-0  43491-4 0  9990,2 53969  53.2174  86.2735 0001637  92.9906 267.1273 15.08834735 72965,6917.896,95.438,540.894,538.629,0.0
53969.0,STARLINK-4468,PAYLOAD,2024-01-28 12:46:56,15.08836882,0.0001625,53.2174,85.9756,95.0789,265.0388,4.7261e-05,4.64e-06,0.0,0 STARLINK-4468,1 53969U 22125F   24028.53259929  .00000464  00000-0  47261-4 0  9992,2 53969  53.2174  85.9756 0001625  95.0789 265.0388 15.08836882 72907,6917.89,95.438,540.879,538.631,0.0
53969.0,STARLINK-4468,PAYLOAD,2024-01-29 11:02:20,15.08805722,0.0001984,53.2171,81.8134,91.9384,268.1835,0.00081431,0.00012683,0.0,0 STARLINK-4468,1 53969U 22125F   24029.45996032  .00012683  00000-0  81431-3 0  9999,2 53969  53.2171  81.8134 0001984  91.9384 268.1835 15.08805722 73117,6917.985,95.44,541.223,538.478,0.0
53969.0,STARLINK-4468,PAYLOAD,2024-01-30 09:17:44,15.08840743,0.0001902,53.2185,77.6453,73.2656,286.8545,8.029e-05,9.9e-06,0.0,0 STARLINK-4468,1 53969U 22125F   24030.38731868  .00000990  00000-0  80290-4 0  9998,2 53969  53.2185  77.6453 0001902  73.2656 286.8545 15.08840743 73256,6917.878,95.438,541.059,538.427,0.0
53969.0,STARLINK-4468,PAYLOAD,2024-01-30 12:28:30,15.08842165,0.0001813,53.2182,77.0504,76.1856,283.9338,8.2513e-05,1.025e-05,0.0,0 STARLINK-4468,1 53969U 22125F   24030.51979723  .00001025  00000-0  82513-4 0  9997,2 53969  53.2182  77.0504 0001813  76.1856 283.9338 15.08842165 73202,6917.874,95.437,540.993,538.485,0.0
53969.0,STARLINK-4468,PAYLOAD,2024-01-31 12:19:17,15.08848865,0.0001936,53.2181,72.5888,79.386,280.735,-4.835e-05,-1.058e-05,0.0,0 STARLINK-4468,1 53969U 22125F   24031.51339518 -.00001058  00000-0 -48350-4 0  9999,2 53969  53.2181  72.5888 0001936  79.3860 280.7350 15.08848865 73428,6917.853,95.437,541.058,538.379,0.0
53969.0,STARLINK-4468,PAYLOAD,2024-02-01 08:59:18,15.08835579,0.000181,53.2175,68.7222,102.6027,257.5168,4.2021e-05,3.81e-06,0.0,0 STARLINK-4468,1 53969U 22125F   24032.37451976  .00000381  00000-0  42021-4 0  9992,2 53969  53.2175  68.7222 0001810 102.6027 257.5168 15.08835579 73557,6917.894,95.438,541.011,538.507,0.0
53969.0,STARLINK-4468,PAYLOAD,2024-02-01 12:10:04,15.08835282,0.0001855,53.2177,68.1283,104.1766,255.9432,3.7269e-05,3.05e-06,0.0,0 STARLINK-4468,1 53969U 22125F   24032.50700064  .00000305  00000-0  37269-4 0  9996,2 53969  53.2177  68.1283 0001855 104.1766 255.9432 15.08835282 73508,6917.895,95.438,541.043,538.477,0.0
53969.0,STARLINK-4468,PAYLOAD,2024-02-02 12:00:51,15.08842141,0.0001813,53.2173,63.6693,106.5892,253.5299,6.8451e-05,8.02e-06,0.0,0 STARLINK-4468,1 53969U 22125F   24033.50059533  .00000802  00000-0  68451-4 0  9994,2 53969  53.2173  63.6693 0001813 106.5892 253.5299 15.08842141 73720,6917.874,95.437,540.993,538.485,0.0
53969.0,STARLINK-4468,PAYLOAD,2024-02-03 03:54:43,15.08834725,0.000166,53.217,60.6959,96.3534,263.7647,2.1892e-05,6e-07,0.0,0 STARLINK-4468,1 53969U 22125F   24034.16300327  .00000060  00000-0  21892-4 0  9991,2 53969  53.2170  60.6959 0001660  96.3534 263.7647 15.08834725 73828,6917.897,95.438,540.91,538.613,0.0
53969.0,STARLINK-4468,PAYLOAD,2024-02-03 07:05:29,15.0883638,0.0001645,53.2169,60.1012,95.1016,265.0163,3.399e-05,2.53e-06,0.0,0 STARLINK-4468,1 53969U 22125F   24034.29548266  .00000253  00000-0  33990-4 0  9997,2 53969  53.2169  60.1012 0001645  95.1016 265.0163 15.08836380 73777,6917.891,95.438,540.894,538.618,0.0
53969.0,STARLINK-4468,PAYLOAD,2024-02-03 18:13:11,15.0883881,0.0001591,53.2166,58.0225,84.6097,275.5076,2.3354e-05,8.4e-07,0.0,0 STARLINK-4468,1 53969U 22125F   24034.75916277  .00000084  00000-0  23354-4 0  9994,2 53969  53.2166  58.0225 0001591  84.6097 275.5076 15.08838810 73845,6917.884,95.438,540.85,538.648,0.0
53969.0,STARLINK-4468,PAYLOAD,2024-02-04 11:42:25,15.08841772,0.0001845,53.2166,54.7521,110.8116,249.3073,0.00013597,1.877e-05,0.0,0 STARLINK-4468,1 53969U 22125F   24035.48779769  .00001877  00000-0  13597-3 0  9996,2 53969  53.2166  54.7521 0001845 110.8116 249.3073 15.08841772 74021,6917.875,95.437,541.016,538.464,0.0
53969.0,STARLINK-4468,PAYLOAD,2024-02-05 08:22:26,15.08863418,0.0001856,53.2172,50.8854,92.4504,267.6701,-0.00020352,-3.528e-05,0.0,0 STARLINK-4468,1 53969U 22125F   24036.34891471 -.00003528  00000-0 -20352-3 0  9991,2 53969  53.2172  50.8854 0001856  92.4504 267.6701 15.08863418 74080,6917.809,95.436,540.958,538.39,0.0
53969.0,STARLINK-4468,PAYLOAD,2024-02-06 00:16:18,15.08841303,0.0001847,53.2177,47.9145,78.7528,281.3672,4.9127e-05,4.94e-06,0.0,0 STARLINK-4468,1 53969U 22125F   24037.01132397  .00000494  00000-0  49127-4 0  9990,2 53969  53.2177  47.9145 0001847  78.7528 281.3672 15.08841303 74256,6917.876,95.437,541.019,538.464,0.0
53969.0,STARLINK-4468,PAYLOAD,2024-02-06 08:13:14,15.08841493,0.000189,53.2181,46.4264,76.6767,283.4435,2.8207e-05,1.61e-06,0.0,0 STARLINK-4468,1 53969U 22125F   24037.34252528  .00000161  00000-0  28207-4 0  9992,2 53969  53.2181  46.4264 0001890  76.6767 283.4435 15.08841493 74235,6917.876,95.437,541.048,538.433,0.0
53969.0,STARLINK-4468,PAYLOAD,2024-02-07 00:07:05,15.08832535,0.0002049,53.2181,43.4534,76.0406,284.0814,0.00019675,2.844e-05,0.0,0 STARLINK-4468,1 53969U 22125F   24038.00492848  .00002844  00000-0  19675-3 0  9995,2 53969  53.2181  43.4534 0002049  76.0406 284.0814 15.08832535 74407,6917.903,95.438,541.186,538.351,0.0
53969.0,STARLINK-4468,PAYLOAD,2024-02-07 06:28:37,15.0884471,0.0001949,53.2181,42.2643,75.4642,284.6567,6.6662e-05,7.73e-06,0.0,0 STARLINK-4468,1 53969U 22125F   24038.26988224  .00000773  00000-0  66662-4 0  9999,2 53969  53.2181  42.2643 0001949  75.4642 284.6567 15.08844710 74441,6917.866,95.437,541.079,538.383,0.0
53969.0,STARLINK-4468,PAYLOAD,2024-02-07 17:36:19,15.08843054,0.0001769,53.2178,40.1822,88.2728,271.8466,9.0417e-05,1.151e-05,0.0,0 STARLINK-4468,1 53969U 22125F   24038.73356092  .00001151  00000-0  90417-4 0  9999,2 53969  53.2178  40.1822 0001769  88.2728 271.8466 15.08843054 74446,6917.871,95.437,540.96,538.512,0.0
53969.0,STARLINK-4468,PAYLOAD,2024-02-07 23:57:52,15.08824281,0.0001885,53.2179,38.9944,91.7265,268.3943,0.00022957,3.366e-05,0.0,0 STARLINK-4468,1 53969U 22125F   24038.99852736  .00003366  00000-0  22957-3 0  9996,2 53969  53.2179  38.9944 0001885  91.7265 268.3943 15.08824281 74555,6917.928,95.439,541.097,538.489,0.0
53969.0,STARLINK-4468,PAYLOAD,2024-02-08 06:19:25,15.0884055,0.0001775,53.2174,37.8014,102.3554,257.7637,5.1532e-05,5.32e-06,0.0,0 STARLINK-4468,1 53969U 22125F   24039.26348382  .00000532  00000-0  51532-4 0  9998,2 53969  53.2174  37.8014 0001775 102.3554 257.7637 15.08840550 74597,6917.879,95.438,540.972,538.516,0.0
53969.0,STARLINK-4468,PAYLOAD,2024-02-09 09:20:58,15.08844447,0.0001843,53.2176,32.7448,114.9092,245.2091,2.3616e-05,8.8e-07,0.0,0 STARLINK-4468,1 53969U 22125F   24040.38956238  .00000088  00000-0  23616-4 0  9996,2 53969  53.2176  32.7448 0001843 114.9092 245.2091 15.08844447 74760,6917.867,95.437,541.007,538.457,0.0
53969.0,STARLINK-4468,PAYLOAD,2024-02-10 02:50:13,15.08833239,0.0001842,53.2178,29.4716,119.3294,240.7882,9.4861e-05,1.222e-05,0.0,0 STARLINK-4468,1 53969U 22125F   24041.11820854  .00001222  00000-0  94861-4 0  9993,2 53969  53.2178  29.4716 0001842 119.3294 240.7882 15.08833239 74872,6917.901,95.438,541.04,538.492,0.0
53969.0,STARLINK-4468,PAYLOAD,2024-02-10 09:11:45,15.08843016,0.0001889,53.2183,28.2819,120.9547,239.1631,3.8663e-05,3.27e-06,0.0,0 STARLINK-4468,1 53969U 22125F   24041.38316467  .00000327  00000-0  38663-4 0  9995,2 53969  53.2183  28.2819 0001889 120.9547 239.1631 15.08843016 74912,6917.871,95.437,541.043,538.429,0.0
53969.0,STARLINK-4468,PAYLOAD,2024-02-11 04:16:23,15.08839345,0.0001871,53.2187,24.7128,107.8011,252.3186,6.7677e-05,7.89e-06,0.0,0 STARLINK-4468,1 53969U 22125F   24042.17804843  .00000789  00000-0  67677-4 0  9992,2 53969  53.2187  24.7128 0001871 107.8011 252.3186 15.08839345 74968,6917.882,95.438,541.042,538.453,0.0
53969.0,STARLINK-4468,PAYLOAD,2024-02-12 08:53:19,15.08852367,0.0001546,53.2175,19.3622,98.3896,261.7272,0.00013017,1.785e-05,0.0,0 STARLINK-4468,1 53969U 22125F   24043.37036032  .00001785  00000-0  13017-3 0  9997,2 53969  53.2175  19.3622 0001546  98.3896 261.7272 15.08852367 75216,6917.843,95.437,540.777,538.638,0.0
53969.0,STARLINK-4468,PAYLOAD,2024-02-13 03:57:57,15.08836932,0.0001578,53.2174,15.7923,107.584,252.5325,8.68e-06,-1.5e-06,0.0,0 STARLINK-4468,1 53969U 22125F   24044.16525352 -.00000150  00000-0  86800-5 0  9991,2 53969  53.2174  15.7923 0001578 107.5840 252.5325 15.08836932 75336,6917.89,95.438,540.846,538.663,0.0
53969.0,STARLINK-4468,PAYLOAD,2024-02-13 07:08:43,15.08845082,0.000153,53.2184,15.1952,102.8129,257.3034,4.8274e-05,4.8e-06,0.0,0 STARLINK-4468,1 53969U 22125F   24044.29772794  .00000480  00000-0  48274-4 0  9996,2 53969  53.2184  15.1952 0001530 102.8129 257.3034 15.08845082 75357,6917.865,95.437,540.788,538.671,0.0
53969.0,STARLINK-4468,PAYLOAD,2024-02-13 15:05:40,15.08835892,0.0001795,53.2191,13.7118,77.5952,282.5241,2.671e-05,1.37e-06,0.0,0 STARLINK-4468,1 53969U 22125F   24044.62893751  .00000137  00000-0  26710-4 0  9990,2 53969  53.2191  13.7118 0001795  77.5952 282.5241 15.08835892 75402,6917.893,95.438,541.0,538.516,0.0
